CCSDS_OMM_VERS = 2.0
CREATION_DATE  = 
ORIGINATOR     = 

OBJECT_NAME    = STARLINK-36749
OBJECT_ID      = 2026-026P
CENTER_NAME    = EARTH
REF_FRAME      = TEME
TIME_SYSTEM    = UTC
MEAN_ELEMENT_THEORY = SGP/SGP4

EPOCH          = 2026-03-05T04:00:01.999584
MEAN_MOTION    = 15.61550722
ECCENTRICITY   = .0001776
INCLINATION    = 97.2840
RA_OF_ASC_NODE = 118.6029
ARG_OF_PERICENTER = 66.0238
MEAN_ANOMALY   = 71.1672

EPHEMERIS_TYPE = 0
CLASSIFICATION_TYPE = U
NORAD_CAT_ID   = 67734
ELEMENT_SET_NO = 999
REV_AT_EPOCH   = 458
BSTAR          = -.25135E-1
MEAN_MOTION_DOT = -.1904007E-1
MEAN_MOTION_DDOT = 0

CCSDS_OMM_VERS = 2.0
CREATION_DATE  = 
ORIGINATOR     = 

OBJECT_NAME    = STARLINK-36691
OBJECT_ID      = 2026-026Q
CENTER_NAME    = EARTH
REF_FRAME      = TEME
TIME_SYSTEM    = UTC
MEAN_ELEMENT_THEORY = SGP/SGP4

EPOCH          = 2026-03-05T04:00:01.999584
MEAN_MOTION    = 15.68681305
ECCENTRICITY   = .0001633
INCLINATION    = 97.2840
RA_OF_ASC_NODE = 118.6503
ARG_OF_PERICENTER = 72.2587
MEAN_ANOMALY   = 179.7107

EPHEMERIS_TYPE = 0
CLASSIFICATION_TYPE = U
NORAD_CAT_ID   = 67735
ELEMENT_SET_NO = 999
REV_AT_EPOCH   = 472
BSTAR          = -.19525E-1
MEAN_MOTION_DOT = -.1959989E-1
MEAN_MOTION_DDOT = 0

CCSDS_OMM_VERS = 2.0
CREATION_DATE  = 
ORIGINATOR     = 

OBJECT_NAME    = STARLINK-36317
OBJECT_ID      = 2026-026R
CENTER_NAME    = EARTH
REF_FRAME      = TEME
TIME_SYSTEM    = UTC
MEAN_ELEMENT_THEORY = SGP/SGP4

EPOCH          = 2026-03-05T04:00:01.999584
MEAN_MOTION    = 15.68445343
ECCENTRICITY   = .0001697
INCLINATION    = 97.2841
RA_OF_ASC_NODE = 118.6450
ARG_OF_PERICENTER = 67.1618
MEAN_ANOMALY   = 172.6604

EPHEMERIS_TYPE = 0
CLASSIFICATION_TYPE = U
NORAD_CAT_ID   = 67736
ELEMENT_SET_NO = 999
REV_AT_EPOCH   = 458
BSTAR          = -.2007E-1
MEAN_MOTION_DOT = -.1991109E-1
MEAN_MOTION_DDOT = 0

CCSDS_OMM_VERS = 2.0
CREATION_DATE  = 
ORIGINATOR     = 

OBJECT_NAME    = STARLINK-36330
OBJECT_ID      = 2026-026S
CENTER_NAME    = EARTH
REF_FRAME      = TEME
TIME_SYSTEM    = UTC
MEAN_ELEMENT_THEORY = SGP/SGP4

EPOCH          = 2026-03-05T04:00:01.999584
MEAN_MOTION    = 15.68776017
ECCENTRICITY   = .000154
INCLINATION    = 97.2838
RA_OF_ASC_NODE = 118.6532
ARG_OF_PERICENTER = 71.3666
MEAN_ANOMALY   = 187.8566

EPHEMERIS_TYPE = 0
CLASSIFICATION_TYPE = U
NORAD_CAT_ID   = 67737
ELEMENT_SET_NO = 999
REV_AT_EPOCH   = 458
BSTAR          = -.19365E-1
MEAN_MOTION_DOT = -.1952474E-1
MEAN_MOTION_DDOT = 0

CCSDS_OMM_VERS = 2.0
CREATION_DATE  = 
ORIGINATOR     = 

OBJECT_NAME    = STARLINK-36327
OBJECT_ID      = 2026-026T
CENTER_NAME    = EARTH
REF_FRAME      = TEME
TIME_SYSTEM    = UTC
MEAN_ELEMENT_THEORY = SGP/SGP4

EPOCH          = 2026-03-05T04:00:01.999584
MEAN_MOTION    = 15.69070912
ECCENTRICITY   = .0001567
INCLINATION    = 97.2840
RA_OF_ASC_NODE = 118.6579
ARG_OF_PERICENTER = 66.1803
MEAN_ANOMALY   = 203.9963

EPHEMERIS_TYPE = 0
CLASSIFICATION_TYPE = U
NORAD_CAT_ID   = 67738
ELEMENT_SET_NO = 999
REV_AT_EPOCH   = 458
BSTAR          = -.19212E-1
MEAN_MOTION_DOT = -.1959869E-1
MEAN_MOTION_DDOT = 0

CCSDS_OMM_VERS = 2.0
CREATION_DATE  = 
ORIGINATOR     = 

OBJECT_NAME    = STARLINK-36329
OBJECT_ID      = 2026-026U
CENTER_NAME    = EARTH
REF_FRAME      = TEME
TIME_SYSTEM    = UTC
MEAN_ELEMENT_THEORY = SGP/SGP4

EPOCH          = 2026-03-05T04:00:01.999584
MEAN_MOTION    = 15.70106117
ECCENTRICITY   = .0001463
INCLINATION    = 97.2838
RA_OF_ASC_NODE = 118.6788
ARG_OF_PERICENTER = 58.8329
MEAN_ANOMALY   = 269.4180

EPHEMERIS_TYPE = 0
CLASSIFICATION_TYPE = U
NORAD_CAT_ID   = 67739
ELEMENT_SET_NO = 999
REV_AT_EPOCH   = 458
BSTAR          = -.18367E-1
MEAN_MOTION_DOT = -.195647E-1
MEAN_MOTION_DDOT = 0

CCSDS_OMM_VERS = 2.0
CREATION_DATE  = 
ORIGINATOR     = 

OBJECT_NAME    = STARLINK-36737
OBJECT_ID      = 2026-026V
CENTER_NAME    = EARTH
REF_FRAME      = TEME
TIME_SYSTEM    = UTC
MEAN_ELEMENT_THEORY = SGP/SGP4

EPOCH          = 2026-03-05T04:00:01.999584
MEAN_MOTION    = 15.69228690
ECCENTRICITY   = .000154
INCLINATION    = 97.2838
RA_OF_ASC_NODE = 118.6613
ARG_OF_PERICENTER = 67.7793
MEAN_ANOMALY   = 212.6898

EPHEMERIS_TYPE = 0
CLASSIFICATION_TYPE = U
NORAD_CAT_ID   = 67740
ELEMENT_SET_NO = 999
REV_AT_EPOCH   = 458
BSTAR          = -.19115E-1
MEAN_MOTION_DOT = -.1962363E-1
MEAN_MOTION_DDOT = 0

CCSDS_OMM_VERS = 2.0
CREATION_DATE  = 
ORIGINATOR     = 

OBJECT_NAME    = STARLINK-36740
OBJECT_ID      = 2026-026W
CENTER_NAME    = EARTH
REF_FRAME      = TEME
TIME_SYSTEM    = UTC
MEAN_ELEMENT_THEORY = SGP/SGP4

EPOCH          = 2026-03-05T04:00:01.999584
MEAN_MOTION    = 15.64958379
ECCENTRICITY   = .000158
INCLINATION    = 97.2841
RA_OF_ASC_NODE = 118.6540
ARG_OF_PERICENTER = 68.2594
MEAN_ANOMALY   = 191.1234

EPHEMERIS_TYPE = 0
CLASSIFICATION_TYPE = U
NORAD_CAT_ID   = 67741
ELEMENT_SET_NO = 999
REV_AT_EPOCH   = 458
BSTAR          = -.22565E-1
MEAN_MOTION_DOT = -.194881E-1
MEAN_MOTION_DDOT = 0

CCSDS_OMM_VERS = 2.0
CREATION_DATE  = 
ORIGINATOR     = 

OBJECT_NAME    = STARLINK-36693
OBJECT_ID      = 2026-026X
CENTER_NAME    = EARTH
REF_FRAME      = TEME
TIME_SYSTEM    = UTC
MEAN_ELEMENT_THEORY = SGP/SGP4

EPOCH          = 2026-03-05T04:00:01.999584
MEAN_MOTION    = 15.65628100
ECCENTRICITY   = .0001638
INCLINATION    = 97.2839
RA_OF_ASC_NODE = 118.6482
ARG_OF_PERICENTER = 71.2278
MEAN_ANOMALY   = 174.7078

EPHEMERIS_TYPE = 0
CLASSIFICATION_TYPE = U
NORAD_CAT_ID   = 67742
ELEMENT_SET_NO = 999
REV_AT_EPOCH   = 472
BSTAR          = -.22037E-1
MEAN_MOTION_DOT = -.1954297E-1
MEAN_MOTION_DDOT = 0

CCSDS_OMM_VERS = 2.0
CREATION_DATE  = 
ORIGINATOR     = 

OBJECT_NAME    = STARLINK-36717
OBJECT_ID      = 2026-026Y
CENTER_NAME    = EARTH
REF_FRAME      = TEME
TIME_SYSTEM    = UTC
MEAN_ELEMENT_THEORY = SGP/SGP4

EPOCH          = 2026-03-05T04:00:01.999584
MEAN_MOTION    = 15.67742616
ECCENTRICITY   = .0001501
INCLINATION    = 97.2839
RA_OF_ASC_NODE = 118.6648
ARG_OF_PERICENTER = 71.0973
MEAN_ANOMALY   = 216.0042

EPHEMERIS_TYPE = 0
CLASSIFICATION_TYPE = U
NORAD_CAT_ID   = 67743
ELEMENT_SET_NO = 999
REV_AT_EPOCH   = 472
BSTAR          = -.20346E-1
MEAN_MOTION_DOT = -.1964491E-1
MEAN_MOTION_DDOT = 0

CCSDS_OMM_VERS = 2.0
CREATION_DATE  = 
ORIGINATOR     = 

OBJECT_NAME    = STARLINK-36692
OBJECT_ID      = 2026-026Z
CENTER_NAME    = EARTH
REF_FRAME      = TEME
TIME_SYSTEM    = UTC
MEAN_ELEMENT_THEORY = SGP/SGP4

EPOCH          = 2026-03-05T04:00:01.999584
MEAN_MOTION    = 15.66493269
ECCENTRICITY   = .0001574
INCLINATION    = 97.2837
RA_OF_ASC_NODE = 118.6560
ARG_OF_PERICENTER = 69.8037
MEAN_ANOMALY   = 195.4178

EPHEMERIS_TYPE = 0
CLASSIFICATION_TYPE = U
NORAD_CAT_ID   = 67744
ELEMENT_SET_NO = 999
REV_AT_EPOCH   = 458
BSTAR          = -.21267E-1
MEAN_MOTION_DOT = -.1953098E-1
MEAN_MOTION_DDOT = 0

CCSDS_OMM_VERS = 2.0
CREATION_DATE  = 
ORIGINATOR     = 

OBJECT_NAME    = 2026-027A
OBJECT_ID      = 2026-027A
CENTER_NAME    = EARTH
REF_FRAME      = TEME
TIME_SYSTEM    = UTC
MEAN_ELEMENT_THEORY = SGP/SGP4

EPOCH          = 2026-03-05T03:41:52.153440
MEAN_MOTION    = 15.17605442
ECCENTRICITY   = .0009863
INCLINATION    = 97.4903
RA_OF_ASC_NODE = 193.2155
ARG_OF_PERICENTER = 210.1567
MEAN_ANOMALY   = 149.9100

EPHEMERIS_TYPE = 0
CLASSIFICATION_TYPE = U
NORAD_CAT_ID   = 67746
ELEMENT_SET_NO = 999
REV_AT_EPOCH   = 317
BSTAR          = .562E-3
MEAN_MOTION_DOT = .11253E-3
MEAN_MOTION_DDOT = 0

