STARLINK-36749          
1 67734U 26026P   26064.16668981 -.01904007  00000+0 -25135-1 0  9995
2 67734  97.2840 118.6029 0001776  66.0238  71.1672 15.61550722  4587
STARLINK-36691          
1 67735U 26026Q   26064.16668981 -.01959989  00000+0 -19525-1 0  9991
2 67735  97.2840 118.6503 0001633  72.2587 179.7107 15.68681305  4726
STARLINK-36317          
1 67736U 26026R   26064.16668981 -.01991109  00000+0 -20070-1 0  9999
2 67736  97.2841 118.6450 0001697  67.1618 172.6604 15.68445343  4585
STARLINK-36330          
1 67737U 26026S   26064.16668981 -.01952474  00000+0 -19365-1 0  9997
2 67737  97.2838 118.6532 0001540  71.3666 187.8566 15.68776017  4580
STARLINK-36327          
1 67738U 26026T   26064.16668981 -.01959869  00000+0 -19212-1 0  9994
2 67738  97.2840 118.6579 0001567  66.1803 203.9963 15.69070912  4582
STARLINK-36329          
1 67739U 26026U   26064.16668981 -.01956470  00000+0 -18367-1 0  9990
2 67739  97.2838 118.6788 0001463  58.8329 269.4180 15.70106117  4585
STARLINK-36737          
1 67740U 26026V   26064.16668981 -.01962363  00000+0 -19115-1 0  9992
2 67740  97.2838 118.6613 0001540  67.7793 212.6898 15.69228690  4589
STARLINK-36740          
1 67741U 26026W   26064.16668981 -.01948810  00000+0 -22565-1 0  9997
2 67741  97.2841 118.6540 0001580  68.2594 191.1234 15.64958379  4586
STARLINK-36693          
1 67742U 26026X   26064.16668981 -.01954297  00000+0 -22037-1 0  9998
2 67742  97.2839 118.6482 0001638  71.2278 174.7078 15.65628100  4722
STARLINK-36717          
1 67743U 26026Y   26064.16668981 -.01964491  00000+0 -20346-1 0  9997
2 67743  97.2839 118.6648 0001501  71.0973 216.0042 15.67742616  4728
STARLINK-36692          
1 67744U 26026Z   26064.16668981 -.01953098  00000+0 -21267-1 0  9992
2 67744  97.2837 118.6560 0001574  69.8037 195.4178 15.66493269  4586
2026-027A               
1 67746U 26027A   26064.15407585  .00011253  00000+0  56200-3 0  9997
2 67746  97.4903 193.2155 0009863 210.1567 149.9100 15.17605442  3178
